<?xml version="1.0" encoding="UTF-8"?>
<ndm xmlns:xsi="http://www.w3.org/2001/XMLSchema-instance" xsi:noNamespaceSchemaLocation="https://sanaregistry.org/r/ndmxml_unqualified/ndmxml-2.0.0-master-2.0.xsd">
<omm id="CCSDS_OMM_VERS" version="2.0">
<header><CREATION_DATE/><ORIGINATOR/></header><body><segment><metadata><OBJECT_NAME>ORBCOMM-X</OBJECT_NAME><OBJECT_ID>1991-050C</OBJECT_ID><CENTER_NAME>EARTH</CENTER_NAME><REF_FRAME>TEME</REF_FRAME><TIME_SYSTEM>UTC</TIME_SYSTEM><MEAN_ELEMENT_THEORY>SGP4</MEAN_ELEMENT_THEORY></metadata><data><meanElements><EPOCH>2024-09-03T04:13:33.195360</EPOCH><MEAN_MOTION>14.42698222</MEAN_MOTION><ECCENTRICITY>.0003201</ECCENTRICITY><INCLINATION>98.3835</INCLINATION><RA_OF_ASC_NODE>313.1274</RA_OF_ASC_NODE><ARG_OF_PERICENTER>353.9470</ARG_OF_PERICENTER><MEAN_ANOMALY>6.1681</MEAN_ANOMALY></meanElements><tleParameters><EPHEMERIS_TYPE>0</EPHEMERIS_TYPE><CLASSIFICATION_TYPE>U</CLASSIFICATION_TYPE><NORAD_CAT_ID>21576</NORAD_CAT_ID><ELEMENT_SET_NO>999</ELEMENT_SET_NO><REV_AT_EPOCH>74072</REV_AT_EPOCH><BSTAR>.43296E-3</BSTAR><MEAN_MOTION_DOT>.1398E-4</MEAN_MOTION_DOT><MEAN_MOTION_DDOT>0</MEAN_MOTION_DDOT></tleParameters></data></segment></body></omm>
<omm id="CCSDS_OMM_VERS" version="2.0">
<header><CREATION_DATE/><ORIGINATOR/></header><body><segment><metadata><OBJECT_NAME>ORBCOMM FM01</OBJECT_NAME><OBJECT_ID>1995-017A</OBJECT_ID><CENTER_NAME>EARTH</CENTER_NAME><REF_FRAME>TEME</REF_FRAME><TIME_SYSTEM>UTC</TIME_SYSTEM><MEAN_ELEMENT_THEORY>SGP4</MEAN_ELEMENT_THEORY></metadata><data><meanElements><EPOCH>2024-09-03T14:30:48.799872</EPOCH><MEAN_MOTION>14.82328381</MEAN_MOTION><ECCENTRICITY>.0003156</ECCENTRICITY><INCLINATION>69.9658</INCLINATION><RA_OF_ASC_NODE>65.0859</RA_OF_ASC_NODE><ARG_OF_PERICENTER>25.6840</ARG_OF_PERICENTER><MEAN_ANOMALY>334.4467</MEAN_ANOMALY></meanElements><tleParameters><EPHEMERIS_TYPE>0</EPHEMERIS_TYPE><CLASSIFICATION_TYPE>U</CLASSIFICATION_TYPE><NORAD_CAT_ID>23545</NORAD_CAT_ID><ELEMENT_SET_NO>999</ELEMENT_SET_NO><REV_AT_EPOCH>56991</REV_AT_EPOCH><BSTAR>.19805E-2</BSTAR><MEAN_MOTION_DOT>.1582E-3</MEAN_MOTION_DOT><MEAN_MOTION_DDOT>0</MEAN_MOTION_DDOT></tleParameters></data></segment></body></omm>
<omm id="CCSDS_OMM_VERS" version="2.0">
<header><CREATION_DATE/><ORIGINATOR/></header><body><segment><metadata><OBJECT_NAME>ORBCOMM FM02</OBJECT_NAME><OBJECT_ID>1995-017B</OBJECT_ID><CENTER_NAME>EARTH</CENTER_NAME><REF_FRAME>TEME</REF_FRAME><TIME_SYSTEM>UTC</TIME_SYSTEM><MEAN_ELEMENT_THEORY>SGP4</MEAN_ELEMENT_THEORY></metadata><data><meanElements><EPOCH>2024-09-03T14:14:00.143808</EPOCH><MEAN_MOTION>14.82036660</MEAN_MOTION><ECCENTRICITY>.0004922</ECCENTRICITY><INCLINATION>69.9671</INCLINATION><RA_OF_ASC_NODE>84.7179</RA_OF_ASC_NODE><ARG_OF_PERICENTER>24.5983</ARG_OF_PERICENTER><MEAN_ANOMALY>335.5401</MEAN_ANOMALY></meanElements><tleParameters><EPHEMERIS_TYPE>0</EPHEMERIS_TYPE><CLASSIFICATION_TYPE>U</CLASSIFICATION_TYPE><NORAD_CAT_ID>23546</NORAD_CAT_ID><ELEMENT_SET_NO>999</ELEMENT_SET_NO><REV_AT_EPOCH>56955</REV_AT_EPOCH><BSTAR>.22354E-2</BSTAR><MEAN_MOTION_DOT>.17749E-3</MEAN_MOTION_DOT><MEAN_MOTION_DDOT>0</MEAN_MOTION_DDOT></tleParameters></data></segment></body></omm>
<omm id="CCSDS_OMM_VERS" version="2.0">
<header><CREATION_DATE/><ORIGINATOR/></header><body><segment><metadata><OBJECT_NAME>ORBCOMM FM08</OBJECT_NAME><OBJECT_ID>1997-084A</OBJECT_ID><CENTER_NAME>EARTH</CENTER_NAME><REF_FRAME>TEME</REF_FRAME><TIME_SYSTEM>UTC</TIME_SYSTEM><MEAN_ELEMENT_THEORY>SGP4</MEAN_ELEMENT_THEORY></metadata><data><meanElements><EPOCH>2024-09-03T12:08:17.683872</EPOCH><MEAN_MOTION>14.43394562</MEAN_MOTION><ECCENTRICITY>.0009253</ECCENTRICITY><INCLINATION>45.0143</INCLINATION><RA_OF_ASC_NODE>301.8771</RA_OF_ASC_NODE><ARG_OF_PERICENTER>248.9880</ARG_OF_PERICENTER><MEAN_ANOMALY>110.9981</MEAN_ANOMALY></meanElements><tleParameters><EPHEMERIS_TYPE>0</EPHEMERIS_TYPE><CLASSIFICATION_TYPE>U</CLASSIFICATION_TYPE><NORAD_CAT_ID>25112</NORAD_CAT_ID><ELEMENT_SET_NO>999</ELEMENT_SET_NO><REV_AT_EPOCH>39991</REV_AT_EPOCH><BSTAR>.16946E-2</BSTAR><MEAN_MOTION_DOT>.5639E-4</MEAN_MOTION_DOT><MEAN_MOTION_DDOT>0</MEAN_MOTION_DDOT></tleParameters></data></segment></body></omm>
<omm id="CCSDS_OMM_VERS" version="2.0">
<header><CREATION_DATE/><ORIGINATOR/></header><body><segment><metadata><OBJECT_NAME>ORBCOMM FM10</OBJECT_NAME><OBJECT_ID>1997-084B</OBJECT_ID><CENTER_NAME>EARTH</CENTER_NAME><REF_FRAME>TEME</REF_FRAME><TIME_SYSTEM>UTC</TIME_SYSTEM><MEAN_ELEMENT_THEORY>SGP4</MEAN_ELEMENT_THEORY></metadata><data><meanElements><EPOCH>2024-09-03T12:30:27.665856</EPOCH><MEAN_MOTION>14.43278990</MEAN_MOTION><ECCENTRICITY>.0006452</ECCENTRICITY><INCLINATION>45.0156</INCLINATION><RA_OF_ASC_NODE>303.7651</RA_OF_ASC_NODE><ARG_OF_PERICENTER>229.7110</ARG_OF_PERICENTER><MEAN_ANOMALY>130.3177</MEAN_ANOMALY></meanElements><tleParameters><EPHEMERIS_TYPE>0</EPHEMERIS_TYPE><CLASSIFICATION_TYPE>U</CLASSIFICATION_TYPE><NORAD_CAT_ID>25113</NORAD_CAT_ID><ELEMENT_SET_NO>999</ELEMENT_SET_NO><REV_AT_EPOCH>40007</REV_AT_EPOCH><BSTAR>.15612E-2</BSTAR><MEAN_MOTION_DOT>.5169E-4</MEAN_MOTION_DOT><MEAN_MOTION_DDOT>0</MEAN_MOTION_DDOT></tleParameters></data></segment></body></omm>
<omm id="CCSDS_OMM_VERS" version="2.0">
<header><CREATION_DATE/><ORIGINATOR/></header><body><segment><metadata><OBJECT_NAME>ORBCOMM FM11</OBJECT_NAME><OBJECT_ID>1997-084C</OBJECT_ID><CENTER_NAME>EARTH</CENTER_NAME><REF_FRAME>TEME</REF_FRAME><TIME_SYSTEM>UTC</TIME_SYSTEM><MEAN_ELEMENT_THEORY>SGP4</MEAN_ELEMENT_THEORY></metadata><data><meanElements><EPOCH>2024-09-03T13:13:04.165824</EPOCH><MEAN_MOTION>14.43123886</MEAN_MOTION><ECCENTRICITY>.0007216</ECCENTRICITY><INCLINATION>45.0141</INCLINATION><RA_OF_ASC_NODE>303.7989</RA_OF_ASC_NODE><ARG_OF_PERICENTER>227.4599</ARG_OF_PERICENTER><MEAN_ANOMALY>132.5642</MEAN_ANOMALY></meanElements><tleParameters><EPHEMERIS_TYPE>0</EPHEMERIS_TYPE><CLASSIFICATION_TYPE>U</CLASSIFICATION_TYPE><NORAD_CAT_ID>25114</NORAD_CAT_ID><ELEMENT_SET_NO>999</ELEMENT_SET_NO><REV_AT_EPOCH>40003</REV_AT_EPOCH><BSTAR>.16906E-2</BSTAR><MEAN_MOTION_DOT>.5592E-4</MEAN_MOTION_DOT><MEAN_MOTION_DDOT>0</MEAN_MOTION_DDOT></tleParameters></data></segment></body></omm>
<omm id="CCSDS_OMM_VERS" version="2.0">
<header><CREATION_DATE/><ORIGINATOR/></header><body><segment><metadata><OBJECT_NAME>ORBCOMM FM12</OBJECT_NAME><OBJECT_ID>1997-084D</OBJECT_ID><CENTER_NAME>EARTH</CENTER_NAME><REF_FRAME>TEME</REF_FRAME><TIME_SYSTEM>UTC</TIME_SYSTEM><MEAN_ELEMENT_THEORY>SGP4</MEAN_ELEMENT_THEORY></metadata><data><meanElements><EPOCH>2024-09-03T12:19:41.116512</EPOCH><MEAN_MOTION>14.43076468</MEAN_MOTION><ECCENTRICITY>.0006301</ECCENTRICITY><INCLINATION>45.0150</INCLINATION><RA_OF_ASC_NODE>303.7138</RA_OF_ASC_NODE><ARG_OF_PERICENTER>229.9580</ARG_OF_PERICENTER><MEAN_ANOMALY>130.0718</MEAN_ANOMALY></meanElements><tleParameters><EPHEMERIS_TYPE>0</EPHEMERIS_TYPE><CLASSIFICATION_TYPE>U</CLASSIFICATION_TYPE><NORAD_CAT_ID>25115</NORAD_CAT_ID><ELEMENT_SET_NO>999</ELEMENT_SET_NO><REV_AT_EPOCH>39982</REV_AT_EPOCH><BSTAR>.16372E-2</BSTAR><MEAN_MOTION_DOT>.5405E-4</MEAN_MOTION_DOT><MEAN_MOTION_DDOT>0</MEAN_MOTION_DDOT></tleParameters></data></segment></body></omm>
<omm id="CCSDS_OMM_VERS" version="2.0">
<header><CREATION_DATE/><ORIGINATOR/></header><body><segment><metadata><OBJECT_NAME>ORBCOMM FM09</OBJECT_NAME><OBJECT_ID>1997-084E</OBJECT_ID><CENTER_NAME>EARTH</CENTER_NAME><REF_FRAME>TEME</REF_FRAME><TIME_SYSTEM>UTC</TIME_SYSTEM><MEAN_ELEMENT_THEORY>SGP4</MEAN_ELEMENT_THEORY></metadata><data><meanElements><EPOCH>2024-09-03T12:40:10.614432</EPOCH><MEAN_MOTION>14.43040369</MEAN_MOTION><ECCENTRICITY>.0006839</ECCENTRICITY><INCLINATION>45.0152</INCLINATION><RA_OF_ASC_NODE>304.3678</RA_OF_ASC_NODE><ARG_OF_PERICENTER>215.2217</ARG_OF_PERICENTER><MEAN_ANOMALY>144.8182</MEAN_ANOMALY></meanElements><tleParameters><EPHEMERIS_TYPE>0</EPHEMERIS_TYPE><CLASSIFICATION_TYPE>U</CLASSIFICATION_TYPE><NORAD_CAT_ID>25116</NORAD_CAT_ID><ELEMENT_SET_NO>999</ELEMENT_SET_NO><REV_AT_EPOCH>40003</REV_AT_EPOCH><BSTAR>.17166E-2</BSTAR><MEAN_MOTION_DOT>.567E-4</MEAN_MOTION_DOT><MEAN_MOTION_DDOT>0</MEAN_MOTION_DDOT></tleParameters></data></segment></body></omm>

</ndm>
